{
  "links" : {
    "next" : "https://api.nasa.gov/neo/rest/v1/feed?start_date=1998-08-09&end_date=1998-08-09&detailed=true&api_key=t0TVs3DtDT2H8Oy2Zy8m2eVrNsAVKAexjcZXUckd",
    "prev" : "https://api.nasa.gov/neo/rest/v1/feed?start_date=1998-08-07&end_date=1998-08-07&detailed=true&api_key=t0TVs3DtDT2H8Oy2Zy8m2eVrNsAVKAexjcZXUckd",
    "self" : "https://api.nasa.gov/neo/rest/v1/feed?start_date=1998-08-08&end_date=1998-08-08&detailed=true&api_key=t0TVs3DtDT2H8Oy2Zy8m2eVrNsAVKAexjcZXUckd"
  },
  "element_count" : 7,
  "near_earth_objects" : {
    "1998-08-08" : [ {
      "links" : {
        "self" : "https://api.nasa.gov/neo/rest/v1/neo/2307070?api_key=t0TVs3DtDT2H8Oy2Zy8m2eVrNsAVKAexjcZXUckd"
      },
      "neo_reference_id" : "2307070",
      "name" : "307070 (2002 AV31)",
      "nasa_jpl_url" : "http://ssd.jpl.nasa.gov/sbdb.cgi?sstr=2307070",
      "absolute_magnitude_h" : 20.7,
      "estimated_diameter" : {
        "kilometers" : {
          "estimated_diameter_min" : 0.1925550782,
          "estimated_diameter_max" : 0.4305662442
        },
        "meters" : {
          "estimated_diameter_min" : 192.5550781879,
          "estimated_diameter_max" : 430.566244241
        },
        "miles" : {
          "estimated_diameter_min" : 0.1196481415,
          "estimated_diameter_max" : 0.2675413778
        },
        "feet" : {
          "estimated_diameter_min" : 631.7424027221,
          "estimated_diameter_max" : 1412.6189567557
        }
      },
      "is_potentially_hazardous_asteroid" : false,
      "close_approach_data" : [ {
        "close_approach_date" : "1998-08-08",
        "epoch_date_close_approach" : 902559600000,
        "relative_velocity" : {
          "kilometers_per_second" : "13.7466010842",
          "kilometers_per_hour" : "49487.7639031474",
          "miles_per_hour" : "30749.771965264"
        },
        "miss_distance" : {
          "astronomical" : "0.2632146314",
          "lunar" : "102.3904876709",
          "kilometers" : "39376348",
          "miles" : "24467328"
        },
        "orbiting_body" : "Earth"
      } ],
      "orbital_data" : {
        "orbit_id" : "75",
        "orbit_determination_date" : "2017-04-06 09:23:59",
        "orbit_uncertainty" : "0",
        "minimum_orbit_intersection" : ".143015",
        "jupiter_tisserand_invariant" : "4.911",
        "epoch_osculation" : "2458000.5",
        "eccentricity" : ".249441069304206",
        "semi_major_axis" : "1.310034736062646",
        "inclination" : "14.97551130247512",
        "ascending_node_longitude" : "119.3113637536016",
        "orbital_period" : "547.6746555831121",
        "perihelion_distance" : ".9832582706735261",
        "perihelion_argument" : "267.3785244832686",
        "aphelion_distance" : "1.636811201451766",
        "perihelion_time" : "2458217.784534408203",
        "mean_anomaly" : "217.173539820518",
        "mean_motion" : ".6573245563403077",
        "equinox" : "J2000"
      }
    }, {
      "links" : {
        "self" : "https://api.nasa.gov/neo/rest/v1/neo/3621808?api_key=t0TVs3DtDT2H8Oy2Zy8m2eVrNsAVKAexjcZXUckd"
      },
      "neo_reference_id" : "3621808",
      "name" : "(2012 YD7)",
      "nasa_jpl_url" : "http://ssd.jpl.nasa.gov/sbdb.cgi?sstr=3621808",
      "absolute_magnitude_h" : 24.3,
      "estimated_diameter" : {
        "kilometers" : {
          "estimated_diameter_min" : 0.0366906138,
          "estimated_diameter_max" : 0.0820427065
        },
        "meters" : {
          "estimated_diameter_min" : 36.6906137531,
          "estimated_diameter_max" : 82.0427064882
        },
        "miles" : {
          "estimated_diameter_min" : 0.0227984834,
          "estimated_diameter_max" : 0.0509789586
        },
        "feet" : {
          "estimated_diameter_min" : 120.3760332259,
          "estimated_diameter_max" : 269.1689931548
        }
      },
      "is_potentially_hazardous_asteroid" : false,
      "close_approach_data" : [ {
        "close_approach_date" : "1998-08-08",
        "epoch_date_close_approach" : 902559600000,
        "relative_velocity" : {
          "kilometers_per_second" : "8.6219680589",
          "kilometers_per_hour" : "31039.0850120354",
          "miles_per_hour" : "19286.4803509505"
        },
        "miss_distance" : {
          "astronomical" : "0.2976443671",
          "lunar" : "115.7836608887",
          "kilometers" : "44526964",
          "miles" : "27667774"
        },
        "orbiting_body" : "Earth"
      } ],
      "orbital_data" : {
        "orbit_id" : "11",
        "orbit_determination_date" : "2017-04-06 08:47:30",
        "orbit_uncertainty" : "6",
        "minimum_orbit_intersection" : ".0176679",
        "jupiter_tisserand_invariant" : "6.710",
        "epoch_osculation" : "2458000.5",
        "eccentricity" : ".2188246479519052",
        "semi_major_axis" : ".8807603940786342",
        "inclination" : "2.539955944876938",
        "ascending_node_longitude" : "72.80569810923522",
        "orbital_period" : "301.9152794474248",
        "perihelion_distance" : ".6880283109143958",
        "perihelion_argument" : "201.5871641006392",
        "aphelion_distance" : "1.073492477242872",
        "perihelion_time" : "2457945.828344577145",
        "mean_anomaly" : "65.18979757583048",
        "mean_motion" : "1.192387482537762",
        "equinox" : "J2000"
      }
    }, {
      "links" : {
        "self" : "https://api.nasa.gov/neo/rest/v1/neo/3712665?api_key=t0TVs3DtDT2H8Oy2Zy8m2eVrNsAVKAexjcZXUckd"
      },
      "neo_reference_id" : "3712665",
      "name" : "(2015 DJ215)",
      "nasa_jpl_url" : "http://ssd.jpl.nasa.gov/sbdb.cgi?sstr=3712665",
      "absolute_magnitude_h" : 24.0,
      "estimated_diameter" : {
        "kilometers" : {
          "estimated_diameter_min" : 0.0421264611,
          "estimated_diameter_max" : 0.0941976306
        },
        "meters" : {
          "estimated_diameter_min" : 42.1264610556,
          "estimated_diameter_max" : 94.1976305719
        },
        "miles" : {
          "estimated_diameter_min" : 0.0261761612,
          "estimated_diameter_max" : 0.0585316759
        },
        "feet" : {
          "estimated_diameter_min" : 138.2101784897,
          "estimated_diameter_max" : 309.0473542854
        }
      },
      "is_potentially_hazardous_asteroid" : false,
      "close_approach_data" : [ {
        "close_approach_date" : "1998-08-08",
        "epoch_date_close_approach" : 902559600000,
        "relative_velocity" : {
          "kilometers_per_second" : "14.6693768102",
          "kilometers_per_hour" : "52809.7565168244",
          "miles_per_hour" : "32813.9289868012"
        },
        "miss_distance" : {
          "astronomical" : "0.3745197385",
          "lunar" : "145.6881713867",
          "kilometers" : "56027356",
          "miles" : "34813784"
        },
        "orbiting_body" : "Earth"
      } ],
      "orbital_data" : {
        "orbit_id" : "12",
        "orbit_determination_date" : "2017-04-06 08:35:18",
        "orbit_uncertainty" : "4",
        "minimum_orbit_intersection" : ".0109591",
        "jupiter_tisserand_invariant" : "5.516",
        "epoch_osculation" : "2458000.5",
        "eccentricity" : ".1483967510987464",
        "semi_major_axis" : "1.132196999251865",
        "inclination" : "4.069632203267333",
        "ascending_node_longitude" : "2.583070805553164",
        "orbital_period" : "440.0291283039898",
        "perihelion_distance" : ".964182642959138",
        "perihelion_argument" : "233.2488045964447",
        "aphelion_distance" : "1.300211355544591",
        "perihelion_time" : "2458030.211924425665",
        "mean_anomaly" : "335.6918528678629",
        "mean_motion" : ".8181276575656545",
        "equinox" : "J2000"
      }
    } ]
  }
}